STARLINK-2283
1 28014C 21024AP  21325.14499569  .00001431  00000-0  97979-4 0  3253
2 28014  53.0530 111.1624 0001960  83.7939 188.0162 15.05590818    15
